NORAD_CAT_ID,OBJECT_NAME,OBJECT_TYPE,EPOCH,MEAN_MOTION,ECCENTRICITY,INCLINATION,RA_OF_ASC_NODE,ARG_OF_PERICENTER,MEAN_ANOMALY,BSTAR,MEAN_MOTION_DOT,MEAN_MOTION_DDOT,TLE_LINE0,TLE_LINE1,TLE_LINE2,SEMIMAJOR_AXIS,PERIOD,APOGEE,PERIGEE,DECAYED
54102.0,STARLINK-5179,PAYLOAD,2023-08-01 15:21:49,15.08838924,0.0001033,53.217,283.1406,90.4578,269.6532,5.9243e-05,6.55e-06,0.0,0 STARLINK-5179,1 54102U 22136BD  23213.64015104  .00000655  00000-0  59243-4 0  9991,2 54102  53.2170 283.1406 0001033  90.4578 269.6532 15.08838924 43880,6917.884,95.438,540.463,539.034,0.0
54102.0,STARLINK-5179,PAYLOAD,2023-08-02 08:51:04,15.08833991,0.0001103,53.2172,279.8701,83.1414,276.9703,1.7282e-05,-1.3e-07,0.0,0 STARLINK-5179,1 54102U 22136BD  23214.36879769 -.00000013  00000-0  17282-4 0  9992,2 54102  53.2172 279.8701 0001103  83.1414 276.9703 15.08833991 43990,6917.899,95.438,540.527,539.001,0.0
54102.0,STARLINK-5179,PAYLOAD,2023-08-02 12:01:50,15.08841225,0.000106,53.2168,279.2741,81.3334,278.7778,3.5358e-06,-2.32e-06,0.0,0 STARLINK-5179,1 54102U 22136BD  23214.50127369 -.00000232  00000-0  35358-5 0  9998,2 54102  53.2168 279.2741 0001060  81.3334 278.7778 15.08841225 44011,6917.877,95.437,540.475,539.008,0.0
54102.0,STARLINK-5179,PAYLOAD,2023-08-03 08:41:50,15.08846915,0.0001157,53.2169,275.4083,78.0068,282.1053,0.00022513,3.298e-05,0.0,0 STARLINK-5179,1 54102U 22136BD  23215.36238598  .00003298  00000-0  22513-3 0  9991,2 54102  53.2169 275.4083 0001157  78.0068 282.1053 15.08846915 44143,6917.859,95.437,540.525,538.924,0.0
54102.0,STARLINK-5179,PAYLOAD,2023-08-04 10:08:01,15.08839226,9.14e-05,53.2159,270.6506,91.8037,268.306,2.3945e-05,9.3e-07,0.0,0 STARLINK-5179,1 54102U 22136BD  23216.42223434  .00000093  00000-0  23945-4 0  9993,2 54102  53.2159 270.6506 0000914  91.8037 268.3060 15.08839226 44307,6917.883,95.438,540.38,539.115,0.0
54102.0,STARLINK-5179,PAYLOAD,2023-08-05 09:58:47,15.08850861,0.0001122,53.2161,266.1904,89.7241,270.3879,0.00011036,1.469e-05,0.0,0 STARLINK-5179,1 54102U 22136BD  23217.41582321  .00001469  00000-0  11036-3 0  9991,2 54102  53.2161 266.1904 0001122  89.7241 270.3879 15.08850861 44452,6917.847,95.437,540.488,538.936,0.0
54102.0,STARLINK-5179,PAYLOAD,2023-08-06 09:49:34,15.08838865,0.0001084,53.2151,261.7292,92.4481,267.6635,9.0654e-05,1.155e-05,0.0,0 STARLINK-5179,1 54102U 22136BD  23218.40943159  .00001155  00000-0  90654-4 0  9997,2 54102  53.2151 261.7292 0001084  92.4481 267.6635 15.08838865 44602,6917.884,95.438,540.499,538.999,0.0
54102.0,STARLINK-5179,PAYLOAD,2023-08-07 03:18:49,15.08833429,0.000108,53.215,258.4571,92.4001,267.7115,-3.7478e-05,-8.84e-06,0.0,0 STARLINK-5179,1 54102U 22136BD  23219.13807575 -.00000884  00000-0 -37478-4 0  9994,2 54102  53.2150 258.4571 0001080  92.4001 267.7115 15.08833429 44715,6917.9,95.438,540.513,539.018,0.0
54102.0,STARLINK-5179,PAYLOAD,2023-08-07 19:12:40,15.08839386,0.0001101,53.2152,255.4843,101.6694,258.4422,-1.8365e-05,-5.8e-06,0.0,0 STARLINK-5179,1 54102U 22136BD  23219.80047343 -.00000580  00000-0 -18365-4 0  9994,2 54102  53.2152 255.4843 0001101 101.6694 258.4422 15.08839386 44818,6917.882,95.438,540.509,538.986,0.0
54102.0,STARLINK-5179,PAYLOAD,2023-08-09 09:21:56,15.08837162,0.0001067,53.2158,248.3472,89.7693,270.3422,0.00010401,1.368e-05,0.0,0 STARLINK-5179,1 54102U 22136BD  23221.39024144  .00001368  00000-0  10401-3 0  9990,2 54102  53.2158 248.3472 0001067  89.7693 270.3422 15.08837162 45059,6917.889,95.438,540.492,539.016,0.0
54102.0,STARLINK-5179,PAYLOAD,2023-08-10 10:48:06,15.08845792,0.0001076,53.2158,243.589,87.9357,272.1759,8.6156e-05,1.084e-05,0.0,0 STARLINK-5179,1 54102U 22136BD  23222.45007578  .00001084  00000-0  86156-4 0  9996,2 54102  53.2158 243.5890 0001076  87.9357 272.1759 15.08845792 45216,6917.863,95.437,540.472,538.983,0.0
54102.0,STARLINK-5179,PAYLOAD,2023-08-11 01:06:35,15.08837779,0.000112,53.2155,240.9129,86.8092,273.3028,5.0231e-05,5.12e-06,0.0,0 STARLINK-5179,1 54102U 22136BD  23223.04624131  .00000512  00000-0  50231-4 0  9992,2 54102  53.2155 240.9129 0001120  86.8092 273.3028 15.08837779 45301,6917.887,95.438,540.527,538.977,0.0
54102.0,STARLINK-5179,PAYLOAD,2023-08-12 10:29:40,15.0884549,0.0001115,53.2147,234.6677,87.4272,272.6848,6.6853e-05,7.76e-06,0.0,0 STARLINK-5179,1 54102U 22136BD  23224.43727512  .00000776  00000-0  66853-4 0  9992,2 54102  53.2147 234.6677 0001115  87.4272 272.6848 15.08845490 45515,6917.864,95.437,540.5,538.957,0.0
54102.0,STARLINK-5179,PAYLOAD,2023-08-13 00:48:09,15.08837787,0.0001136,53.2151,231.9916,87.7756,272.3367,6.7699e-05,7.9e-06,0.0,0 STARLINK-5179,1 54102U 22136BD  23225.03343957  .00000790  00000-0  67699-4 0  9991,2 54102  53.2151 231.9916 0001136  87.7756 272.3367 15.08837787 45602,6917.887,95.438,540.538,538.966,0.0
54102.0,STARLINK-5179,PAYLOAD,2023-08-14 02:14:19,15.08817771,0.0001334,53.2146,227.236,100.913,259.2013,0.00024969,3.686e-05,0.0,0 STARLINK-5179,1 54102U 22136BD  23226.09328381  .00003686  00000-0  24969-3 0  9991,2 54102  53.2146 227.2360 0001334 100.9130 259.2013 15.08817771 45761,6917.948,95.439,540.736,538.89,0.0
54102.0,STARLINK-5179,PAYLOAD,2023-08-14 16:32:47,15.08838172,0.0001185,53.2157,224.5581,94.026,266.0867,1.0512e-05,-1.21e-06,0.0,0 STARLINK-5179,1 54102U 22136BD  23226.68944218 -.00000121  00000-0  10512-4 0  9991,2 54102  53.2157 224.5581 0001185  94.0260 266.0867 15.08838172 45850,6917.886,95.438,540.571,538.931,0.0
54102.0,STARLINK-5179,PAYLOAD,2023-08-16 00:20:31,15.08830534,0.0001248,53.2157,218.6103,91.7393,268.3742,3.3445e-05,2.44e-06,0.0,0 STARLINK-5179,1 54102U 22136BD  23228.01424903  .00000244  00000-0  33445-4 0  9999,2 54102  53.2157 218.6103 0001248  91.7393 268.3742 15.08830534 46059,6917.909,95.438,540.638,538.911,0.0
54102.0,STARLINK-5179,PAYLOAD,2023-08-17 08:08:13,15.08842544,0.0001302,53.2159,212.6631,87.8124,272.3017,5.9755e-05,6.63e-06,0.0,0 STARLINK-5179,1 54102U 22136BD  23229.33904459  .00000663  00000-0  59755-4 0  9991,2 54102  53.2159 212.6631 0001302  87.8124 272.3017 15.08842544 46256,6917.873,95.437,540.638,538.837,0.0
54102.0,STARLINK-5179,PAYLOAD,2023-08-18 15:55:56,15.08838561,0.0001239,53.2161,206.7137,85.2342,274.8792,-5.5469e-06,-3.76e-06,0.0,0 STARLINK-5179,1 54102U 22136BD  23230.66384908 -.00000376  00000-0 -55469-5 0  9992,2 54102  53.2161 206.7137 0001239  85.2342 274.8792 15.08838561 46450,6917.885,95.438,540.607,538.893,0.0
54102.0,STARLINK-5179,PAYLOAD,2023-08-20 02:54:25,15.08840655,0.0001318,53.2171,200.1705,96.3279,263.7863,4.5104e-05,4.3e-06,0.0,0 STARLINK-5179,1 54102U 22136BD  23232.12112738  .00000430  00000-0  45104-4 0  9998,2 54102  53.2171 200.1705 0001318  96.3279 263.7863 15.08840655 46677,6917.878,95.438,540.655,538.832,0.0
54102.0,STARLINK-5179,PAYLOAD,2023-08-21 04:20:35,15.08844678,0.0001368,53.2164,195.4138,98.1372,261.9775,0.00010918,1.45e-05,0.0,0 STARLINK-5179,1 54102U 22136BD  23233.18096320  .00001450  00000-0  10918-3 0  9990,2 54102  53.2164 195.4138 0001368  98.1372 261.9775 15.08844678 46833,6917.866,95.437,540.677,538.785,0.0
54102.0,STARLINK-5179,PAYLOAD,2023-08-22 04:11:23,15.08835392,0.0001457,53.2172,190.9551,99.9794,260.1363,1.1605e-05,-1.03e-06,0.0,0 STARLINK-5179,1 54102U 22136BD  23234.17457327 -.00000103  00000-0  11605-4 0  9998,2 54102  53.2172 190.9551 0001457  99.9794 260.1363 15.08835392 46980,6917.894,95.438,540.767,538.752,0.0
54102.0,STARLINK-5179,PAYLOAD,2023-08-23 05:37:33,15.0884169,0.0001467,53.218,186.202,102.6636,257.452,3.6623e-05,2.95e-06,0.0,0 STARLINK-5179,1 54102U 22136BD  23235.23441060  .00000295  00000-0  36623-4 0  9991,2 54102  53.2180 186.2020 0001467 102.6636 257.4520 15.08841690 47147,6917.875,95.437,540.755,538.725,0.0
54102.0,STARLINK-5179,PAYLOAD,2023-08-24 07:03:44,15.08829673,0.000131,53.2172,181.44,89.3559,270.7583,1.2555e-05,-8.8e-07,0.0,0 STARLINK-5179,1 54102U 22136BD  23236.29426446 -.00000088  00000-0  12555-4 0  9998,2 54102  53.2172 181.4400 0001310  89.3559 270.7583 15.08829673 46838,6917.912,95.438,540.683,538.871,0.0
54102.0,STARLINK-5179,PAYLOAD,2023-08-25 00:32:58,15.08843306,0.000116,53.2164,178.1701,89.665,270.4475,9.8637e-05,1.282e-05,0.0,0 STARLINK-5179,1 54102U 22136BD  23237.02289428  .00001282  00000-0  98637-4 0  9998,2 54102  53.2164 178.1701 0001160  89.6650 270.4475 15.08843306 47415,6917.87,95.437,540.538,538.933,0.0
54102.0,STARLINK-5179,PAYLOAD,2023-08-25 05:19:06,15.08851223,0.0001241,53.2167,177.2774,89.8753,270.2381,0.00016305,2.309e-05,0.0,0 STARLINK-5179,1 54102U 22136BD  23237.22160709  .00002309  00000-0  16305-3 0  9992,2 54102  53.2167 177.2774 0001241  89.8753 270.2381 15.08851223 47448,6917.846,95.437,540.57,538.853,0.0
54102.0,STARLINK-5179,PAYLOAD,2023-08-25 19:37:35,15.08840172,0.0001552,53.2154,174.6018,85.3181,274.7989,0.00011601,1.559e-05,0.0,0 STARLINK-5179,1 54102U 22136BD  23237.81777652  .00001559  00000-0  11601-3 0  9998,2 54102  53.2154 174.6018 0001552  85.3181 274.7989 15.08840172 47531,6917.88,95.438,540.819,538.671,0.0
54102.0,STARLINK-5179,PAYLOAD,2023-08-26 05:09:54,15.08841722,0.0001289,53.2167,172.8166,90.5962,269.5178,0.00012882,1.763e-05,0.0,0 STARLINK-5179,1 54102U 22136BD  23238.21521519  .00001763  00000-0  12882-3 0  9991,2 54102  53.2167 172.8166 0001289  90.5962 269.5178 15.08841722 47120,6917.875,95.437,540.632,538.848,0.0
54102.0,STARLINK-5179,PAYLOAD,2023-08-27 01:49:55,15.08849205,0.0001359,53.2168,168.951,87.7036,272.4112,-2.5212e-05,-6.89e-06,0.0,0 STARLINK-5179,1 54102U 22136BD  23239.07633407 -.00000689  00000-0 -25212-4 0  9996,2 54102  53.2168 168.9510 0001359  87.7036 272.4112 15.08849205 47729,6917.852,95.437,540.657,538.777,0.0
54102.0,STARLINK-5179,PAYLOAD,2023-08-27 05:00:41,15.08850661,0.0001342,53.2165,168.3562,89.5019,270.6127,-7.5347e-06,-4.08e-06,0.0,0 STARLINK-5179,1 54102U 22136BD  23239.20881182 -.00000408  00000-0 -75347-5 0  9990,2 54102  53.2165 168.3562 0001342  89.5019 270.6127 15.08850661 47274,6917.848,95.437,540.641,538.784,0.0
